[
  {
    "id": 1,
    "coordsId": 1,
    "line1": "5403 Illinois Avenue",
    "line2": "",
    "city": "Nashville",
    "state": "TN",
    "postalCode": "37209"
  },
  {
    "id": 2,
    "coordsId": 2,
    "line1": "23 Sable Run Lane",
    "line2": "",
    "city": "Methuen",
    "state": "MA",
    "postalCode": "01844"
  },
  {
    "id": 3,
    "coordsId": 3,
    "line1": "1101 Lotus Avenue",
    "line2": "",
    "city": "Glen Burnie",
    "state": "MD",
    "postalCode": "21061"
  },
  {
    "id": 4,
    "coordsId": 4,
    "line1": "637 Britannia Drive",
    "line2": "",
    "city": "Vallejo",
    "state": "CA",
    "postalCode": "94591"
  },
  {
    "id": 5,
    "coordsId": 5,
    "line1": "131 Westerly Street",
    "line2": "",
    "city": "Manchester",
    "state": "CT",
    "postalCode": "06042"
  },
  {
    "id": 6,
    "coordsId": 6,
    "line1": "165 Saint John Street",
    "line2": "",
    "city": "Manchester",
    "state": "CT",
    "postalCode": "06040"
  },
  {
    "id": 7,
    "coordsId": 7,
    "line1": "22572 Toreador Drive",
    "line2": "",
    "city": "Salinas",
    "state": "CA",
    "postalCode": "93908"
  },
  {
    "id": 8,
    "coordsId": 8,
    "line1": "1427 South Carolina Avenue Southeast",
    "line2": "",
    "city": "Washington",
    "state": "DC",
    "postalCode": "20003"
  },
  {
    "id": 9,
    "coordsId": 9,
    "line1": "913 Fallview Trail",
    "line2": "",
    "city": "Nashville",
    "state": "TN",
    "postalCode": "37211"
  },
  {
    "id": 10,
    "coordsId": 10,
    "line1": "172 Alburg Springs Road",
    "line2": "",
    "city": "Alburgh",
    "state": "VT",
    "postalCode": "05440"
  },
  {
    "id": 11,
    "coordsId": 11,
    "line1": "1770 Colony Way",
    "line2": "",
    "city": "Fayetteville",
    "state": "AR",
    "postalCode": "72704"
  },
  {
    "id": 12,
    "coordsId": 12,
    "line1": "1903 Bashford Manor Lane",
    "line2": "",
    "city": "Louisville",
    "state": "KY",
    "postalCode": "40218"
  },
  {
    "id": 13,
    "coordsId": 13,
    "line1": "232 Maine Avenue",
    "line2": "",
    "city": "Panama City",
    "state": "FL",
    "postalCode": "32401"
  },
  {
    "id": 14,
    "coordsId": 14,
    "line1": "210 Lacross Lane",
    "line2": "",
    "city": "Westmore",
    "state": "VT",
    "postalCode": "05860"
  },
  {
    "id": 15,
    "coordsId": 15,
    "line1": "5906 Milton Avenue",
    "line2": "",
    "city": "Deale",
    "state": "MD",
    "postalCode": "20751"
  },
  {
    "id": 16,
    "coordsId": 16,
    "line1": "416 McIver Street",
    "line2": "",
    "city": "Nashville",
    "state": "TN",
    "postalCode": "37211"
  },
  {
    "id": 17,
    "coordsId": 17,
    "line1": "2721 Lindsay Avenue",
    "line2": "",
    "city": "Louisville",
    "state": "KY",
    "postalCode": "40206"
  },
  {
    "id": 18,
    "coordsId": 18,
    "line1": "5306 Ritchie Highway",
    "line2": "",
    "city": "Baltimore",
    "state": "MD",
    "postalCode": "21225"
  },
  {
    "id": 19,
    "coordsId": 19,
    "line1": "308 Woodleaf Court",
    "line2": "",
    "city": "Glen Burnie",
    "state": "MD",
    "postalCode": "21061"
  },
  {
    "id": 20,
    "coordsId": 20,
    "line1": "8821 West Myrtle Avenue",
    "line2": "",
    "city": "Glendale",
    "state": "AZ",
    "postalCode": "85305"
  },
  {
    "id": 21,
    "coordsId": 21,
    "line1": "8502 Madrone Avenue",
    "line2": "",
    "city": "Louisville",
    "state": "KY",
    "postalCode": "40258"
  },
  {
    "id": 22,
    "coordsId": 22,
    "line1": "1513 Cathy Street",
    "line2": "",
    "city": "Savannah",
    "state": "GA",
    "postalCode": "31415"
  },
  {
    "id": 23,
    "coordsId": 23,
    "line1": "60 Desousa Drive",
    "line2": "",
    "city": "Manchester",
    "state": "CT",
    "postalCode": "06040"
  },
  {
    "id": 24,
    "coordsId": 24,
    "line1": "6601 West Ocotillo Road",
    "line2": "",
    "city": "Glendale",
    "state": "AZ",
    "postalCode": "85301"
  },
  {
    "id": 25,
    "coordsId": 25,
    "line1": "2811 Battery Place Northwest",
    "line2": "",
    "city": "Washington",
    "state": "DC",
    "postalCode": "20016"
  }
]